STARLINK-30278          
1 57668U 23124F   26068.69910428  .00000867  00000+0  41404-4 0  9992
2 57668  53.1615 206.9968 0001241  72.6080 287.5057 15.30195609143568
TEVEL2-3                
1 63218U 25052J   26068.64540225  .00020365  00000+0  69446-3 0  9991
2 63218  97.3994 324.7775 0004761 105.7353 254.4413 15.30377031 54855
